OBJECT_NAME,OBJECT_ID,EPOCH,MEAN_MOTION,ECCENTRICITY,INCLINATION,RA_OF_ASC_NODE,ARG_OF_PERICENTER,MEAN_ANOMALY,EPHEMERIS_TYPE,CLASSIFICATION_TYPE,NORAD_CAT_ID,ELEMENT_SET_NO,REV_AT_EPOCH,BSTAR,MEAN_MOTION_DOT,MEAN_MOTION_DDOT
LEMUR-2-FINNIAN,2025-276DX,2026-06-08T03:26:18.116736,15.00262468,.00085382,97.5256,230.4243,116.1119,244.0985,0,U,66782,999,1864,.47697643E-3,.5921E-4,0
LEMUR-2-STARLIGHT,2025-276DY,2026-06-08T03:48:02.107872,14.98948334,.00153528,97.5274,230.1048,153.7795,206.4209,0,U,66783,999,2884,.45215688E-3,.5428E-4,0
LEMUR-2-TARTIFLETTE,2025-276DZ,2026-06-08T10:10:35.531040,14.98975650,.0013946,97.5277,230.3668,159.1444,201.0351,0,U,66784,999,2888,.5212E-3,.6269E-4,0
LEMUR-2-VUKASIN,2025-276EA,2026-06-08T10:12:20.665152,15.00270161,.0006276,97.5307,230.6436,144.8230,215.3410,0,U,66785,999,2883,.48163E-3,.5978E-4,0
LEMUR-2-HOTSPUR-TOM,2025-276EB,2026-06-08T11:35:01.969152,14.98851928,.0015321,97.5253,230.4075,154.1031,206.0963,0,U,66786,999,2882,.54387E-3,.6526E-4,0
LEMUR-2-MYRA,2025-276EC,2026-06-08T04:32:18.328992,15.00122724,.0015505,97.5218,230.3667,171.4392,188.7100,0,U,66787,999,2886,.46984E-3,.582E-4,0
LEMUR-2 FIKRETDENGIZ,2026-004A,2026-06-07T23:46:36.348672,14.88259665,.00092864,97.8015,157.6907,160.0491,200.1090,0,U,67363,999,2191,.48687451E-3,.4447E-4,0
TWILIGHT-1 OBJECT B,2026-004B,2026-06-08T11:34:25.581792,14.87673121,.0009387,97.8059,158.1934,149.5743,210.6020,0,U,67364,999,2199,.2421E-3,.2151E-4,0
LEMUR-2-MARIO-SOUSA,2026-004C,2026-06-08T12:19:06.154752,14.88445614,.0008931,97.7993,158.2016,158.8975,201.2612,0,U,67365,999,2200,.44706E-3,.4097E-4,0
LEMUR-2-SONNENBLUME,2026-004E,2026-06-08T12:15:13.699008,14.88272868,.0008448,97.7984,158.1867,160.7050,199.4488,0,U,67367,999,2200,.29684E-3,.269E-4,0
LEMUR-2-WOBLER,2026-004F,2026-06-08T05:40:15.760992,14.88456535,.000889,97.8041,158.0302,150.9848,209.1865,0,U,67368,999,2196,.3734E-3,.3414E-4,0
LEMUR-2-GRAM-E-SUE,2026-004H,2026-06-08T05:26:29.275872,14.88432151,.0007491,97.7973,157.9220,161.8793,198.2692,0,U,67370,999,2196,.27137E-3,.2464E-4,0
LEMUR-2-KATIE,2026-004AA,2026-06-08T11:48:33.811200,14.89994681,.0004748,97.8037,158.6143,110.9260,249.2466,0,U,67387,999,2201,.51475E-3,.491E-4,0
LEMUR-2-HCS-BAZUS,2026-004AB,2026-06-08T05:20:27.860352,14.89987091,.0004371,97.8026,158.3303,106.6992,253.4705,0,U,67388,999,2197,.52131E-3,.4972E-4,0
